ONEWEB-0697             
1 61603U 24188K   25256.95408599  .00000561  00000+0  15481-2 0  9990
2 61603  87.8770  76.1111 0001371 119.5715 240.5550 13.11416798 48243
ONEWEB-0698             
1 61604U 24188L   25257.23722037 -.00000026  00000+0 -10916-3 0  9996
2 61604  87.8773  76.0688 0000648 108.2040 251.9158 13.11419403 48300
ONEWEB-0699             
1 61605U 24188M   25257.25950265 -.00000687  00000+0 -20042-2 0  9998
2 61605  87.8745  91.2796 0001294 104.8499 255.2772 13.10372326 47171
ONEWEB-0700             
1 61606U 24188N   25257.26116086 -.00000596  00000+0 -17448-2 0  9990
2 61606  87.8729  91.1640 0001863 108.0187 252.1144 13.10372745 47166
ONEWEB-0701             
1 61607U 24188P   25256.97233450 -.00000073  00000+0 -24545-3 0  9990
2 61607  87.8741  91.3417 0001258 116.1519 243.9738 13.10375899 47139
ONEWEB-0702             
1 61608U 24188Q   25257.20670069 -.00000201  00000+0 -60305-3 0  9996
2 61608  87.8708  76.0025 0001661 123.7422 236.3864 13.11413182 48319
ONEWEB-0704             
1 61609U 24188R   25257.26614093 -.00000633  00000+0 -18503-2 0  9999
2 61609  87.8764  91.2343 0001747 120.4932 239.6368 13.10373817 47154
ONEWEB-0705             
1 61610U 24188S   25257.27112424 -.00000405  00000+0 -11969-2 0  9999
2 61610  87.8747  91.2662 0002629 106.0226 254.1191 13.10375717 39324
ONEWEB-0706             
1 61611U 24188T   25257.25618199 -.00000598  00000+0 -17491-2 0  9997
2 61611  87.8738  91.2968 0001862 107.9842 252.1489 13.10373529 47243
ONEWEB-0707             
1 61612U 24188U   25256.95740164 -.00000608  00000+0 -17774-2 0  9998
2 61612  87.8747  91.3228 0001736 108.1454 251.9862 13.10372392 47144
ONEWEB-0708             
1 61613U 24188V   25256.97566475  .00000112  00000+0  28392-3 0  9999
2 61613  87.8761  91.3600 0002193 104.0330 256.1042 13.10376171 47125
