[{"OBJECT_NAME":"ONEWEB-0697","OBJECT_ID":"2024-188K","EPOCH":"2025-09-13T22:53:53.029536","MEAN_MOTION":13.11416798,"ECCENTRICITY":0.00013719,"INCLINATION":87.877,"RA_OF_ASC_NODE":76.1111,"ARG_OF_PERICENTER":119.5715,"MEAN_ANOMALY":240.555,"EPHEMERIS_TYPE":0,"CLASSIFICATION_TYPE":"U","NORAD_CAT_ID":61603,"ELEMENT_SET_NO":999,"REV_AT_EPOCH":4824,"BSTAR":0.0015480894,"MEAN_MOTION_DOT":5.61e-6,"MEAN_MOTION_DDOT":0},{"OBJECT_NAME":"ONEWEB-0698","OBJECT_ID":"2024-188L","EPOCH":"2025-09-14T05:41:35.839968","MEAN_MOTION":13.11419403,"ECCENTRICITY":6.485e-5,"INCLINATION":87.8773,"RA_OF_ASC_NODE":76.0688,"ARG_OF_PERICENTER":108.204,"MEAN_ANOMALY":251.9158,"EPHEMERIS_TYPE":0,"CLASSIFICATION_TYPE":"U","NORAD_CAT_ID":61604,"ELEMENT_SET_NO":999,"REV_AT_EPOCH":4830,"BSTAR":-0.00010916373,"MEAN_MOTION_DOT":-2.6e-7,"MEAN_MOTION_DDOT":0},{"OBJECT_NAME":"ONEWEB-0699","OBJECT_ID":"2024-188M","EPOCH":"2025-09-14T06:13:41.028960","MEAN_MOTION":13.10372326,"ECCENTRICITY":0.00012942,"INCLINATION":87.8745,"RA_OF_ASC_NODE":91.2796,"ARG_OF_PERICENTER":104.8499,"MEAN_ANOMALY":255.2772,"EPHEMERIS_TYPE":0,"CLASSIFICATION_TYPE":"U","NORAD_CAT_ID":61605,"ELEMENT_SET_NO":999,"REV_AT_EPOCH":4717,"BSTAR":-0.0020042394,"MEAN_MOTION_DOT":-6.87e-6,"MEAN_MOTION_DDOT":0},{"OBJECT_NAME":"ONEWEB-0700","OBJECT_ID":"2024-188N","EPOCH":"2025-09-14T06:16:04.298304","MEAN_MOTION":13.10372745,"ECCENTRICITY":0.00018632,"INCLINATION":87.8729,"RA_OF_ASC_NODE":91.164,"ARG_OF_PERICENTER":108.0187,"MEAN_ANOMALY":252.1144,"EPHEMERIS_TYPE":0,"CLASSIFICATION_TYPE":"U","NORAD_CAT_ID":61606,"ELEMENT_SET_NO":999,"REV_AT_EPOCH":4716,"BSTAR":-0.0017447956,"MEAN_MOTION_DOT":-5.96e-6,"MEAN_MOTION_DDOT":0},{"OBJECT_NAME":"ONEWEB-0701","OBJECT_ID":"2024-188P","EPOCH":"2025-09-13T23:20:09.700800","MEAN_MOTION":13.10375899,"ECCENTRICITY":0.00012589,"INCLINATION":87.8741,"RA_OF_ASC_NODE":91.3417,"ARG_OF_PERICENTER":116.1519,"MEAN_ANOMALY":243.9738,"EPHEMERIS_TYPE":0,"CLASSIFICATION_TYPE":"U","NORAD_CAT_ID":61607,"ELEMENT_SET_NO":999,"REV_AT_EPOCH":4713,"BSTAR":-0.00024545003,"MEAN_MOTION_DOT":-7.3e-7,"MEAN_MOTION_DDOT":0},{"OBJECT_NAME":"ONEWEB-0702","OBJECT_ID":"2024-188Q","EPOCH":"2025-09-14T04:57:38.939616","MEAN_MOTION":13.11413182,"ECCENTRICITY":0.0001661,"INCLINATION":87.8708,"RA_OF_ASC_NODE":76.0025,"ARG_OF_PERICENTER":123.7422,"MEAN_ANOMALY":236.3864,"EPHEMERIS_TYPE":0,"CLASSIFICATION_TYPE":"U","NORAD_CAT_ID":61608,"ELEMENT_SET_NO":999,"REV_AT_EPOCH":4831,"BSTAR":-0.00060305438,"MEAN_MOTION_DOT":-2.01e-6,"MEAN_MOTION_DDOT":0},{"OBJECT_NAME":"ONEWEB-0704","OBJECT_ID":"2024-188R","EPOCH":"2025-09-14T06:23:14.576352","MEAN_MOTION":13.10373817,"ECCENTRICITY":0.00017471,"INCLINATION":87.8764,"RA_OF_ASC_NODE":91.2343,"ARG_OF_PERICENTER":120.4932,"MEAN_ANOMALY":239.6368,"EPHEMERIS_TYPE":0,"CLASSIFICATION_TYPE":"U","NORAD_CAT_ID":61609,"ELEMENT_SET_NO":999,"REV_AT_EPOCH":4715,"BSTAR":-0.0018502829,"MEAN_MOTION_DOT":-6.33e-6,"MEAN_MOTION_DDOT":0},{"OBJECT_NAME":"ONEWEB-0705","OBJECT_ID":"2024-188S","EPOCH":"2025-09-14T06:30:25.134336","MEAN_MOTION":13.10375717,"ECCENTRICITY":0.00026298,"INCLINATION":87.8747,"RA_OF_ASC_NODE":91.2662,"ARG_OF_PERICENTER":106.0226,"MEAN_ANOMALY":254.1191,"EPHEMERIS_TYPE":0,"CLASSIFICATION_TYPE":"U","NORAD_CAT_ID":61610,"ELEMENT_SET_NO":999,"REV_AT_EPOCH":3932,"BSTAR":-0.0011968762,"MEAN_MOTION_DOT":-4.05e-6,"MEAN_MOTION_DDOT":0},{"OBJECT_NAME":"ONEWEB-0706","OBJECT_ID":"2024-188T","EPOCH":"2025-09-14T06:08:54.123936","MEAN_MOTION":13.10373529,"ECCENTRICITY":0.00018622,"INCLINATION":87.8738,"RA_OF_ASC_NODE":91.2968,"ARG_OF_PERICENTER":107.9842,"MEAN_ANOMALY":252.1489,"EPHEMERIS_TYPE":0,"CLASSIFICATION_TYPE":"U","NORAD_CAT_ID":61611,"ELEMENT_SET_NO":999,"REV_AT_EPOCH":4724,"BSTAR":-0.0017490579,"MEAN_MOTION_DOT":-5.98e-6,"MEAN_MOTION_DDOT":0},{"OBJECT_NAME":"ONEWEB-0707","OBJECT_ID":"2024-188U","EPOCH":"2025-09-13T22:58:39.501696","MEAN_MOTION":13.10372392,"ECCENTRICITY":0.00017361,"INCLINATION":87.8747,"RA_OF_ASC_NODE":91.3228,"ARG_OF_PERICENTER":108.1454,"MEAN_ANOMALY":251.9862,"EPHEMERIS_TYPE":0,"CLASSIFICATION_TYPE":"U","NORAD_CAT_ID":61612,"ELEMENT_SET_NO":999,"REV_AT_EPOCH":4714,"BSTAR":-0.0017774009,"MEAN_MOTION_DOT":-6.08e-6,"MEAN_MOTION_DDOT":0},{"OBJECT_NAME":"ONEWEB-0708","OBJECT_ID":"2024-188V","EPOCH":"2025-09-13T23:24:57.434400","MEAN_MOTION":13.10376171,"ECCENTRICITY":0.00021937,"INCLINATION":87.8761,"RA_OF_ASC_NODE":91.36,"ARG_OF_PERICENTER":104.033,"MEAN_ANOMALY":256.1042,"EPHEMERIS_TYPE":0,"CLASSIFICATION_TYPE":"U","NORAD_CAT_ID":61613,"ELEMENT_SET_NO":999,"REV_AT_EPOCH":4712,"BSTAR":0.00028391726,"MEAN_MOTION_DOT":1.12e-6,"MEAN_MOTION_DDOT":0}]
